{"type": "FeatureCollection", "features": [ {"type": "Feature", "properties": {"norad_id": 65077, "name": "CREW DRAGON 11", "group": "stations", "lat": -34.19502555861829, "lon": 156.27343295854374, "alt_km": 423.8757055514434, "timestamp": "2025-12-03T08:58:44.795464+00:00", "meta": {"OBJECT_NAME": "CREW DRAGON 11", "OBJECT_ID": "2025-166A", "EPOCH": "2025-12-02T02:12:50.598720", "MEAN_MOTION": 15.49237019, "ECCENTRICITY": 0.00036389, "INCLINATION": 51.6314, "RA_OF_ASC_NODE": 195.1903, "ARG_OF_PERICENTER": 193.8265, "MEAN_ANOMALY": 166.2625, "EPHEMERIS_TYPE": 0, "CLASSIFICATION_TYPE": "U", "NORAD_CAT_ID": 65077, "ELEMENT_SET_NO": 999, "REV_AT_EPOCH": 214, "BSTAR": 0.00017380747, "MEAN_MOTION_DOT": 9.217e-05, "MEAN_MOTION_DDOT": 0}, "tle": {"line1": "1 65077U 25166A   25336.09225230  .00009217  00000+0  17381-3 0  9998", "line2": "2 65077  51.6314 195.1903 0003638 193.8265 166.2625 15.49237019  2145"}}, "geometry": {"type": "Point", "coordinates": [156.27343295854374, -34.19502555861829]}}, {"type": "Feature", "properties": {"norad_id": 65304, "name": "DRAGON CRS-33", "group": "stations", "lat": -34.19502513259392, "lon": 156.2734335433863, "alt_km": 423.8757055528822, "timestamp": "2025-12-03T08:58:44.795474+00:00", "meta": {"OBJECT_NAME": "DRAGON CRS-33", "OBJECT_ID": "2025-186A", "EPOCH": "2025-12-02T02:12:50.598720", "MEAN_MOTION": 15.49237019, "ECCENTRICITY": 0.00036389, "INCLINATION": 51.6314, "RA_OF_ASC_NODE": 195.1903, "ARG_OF_PERICENTER": 193.8265, "MEAN_ANOMALY": 166.2625, "EPHEMERIS_TYPE": 0, "CLASSIFICATION_TYPE": "U", "NORAD_CAT_ID": 65304, "ELEMENT_SET_NO": 999, "REV_AT_EPOCH": 11, "BSTAR": 0.00017380747, "MEAN_MOTION_DOT": 9.217e-05, "MEAN_MOTION_DDOT": 0}, "tle": {"line1": "1 65304U 25186A   25336.09225230  .00009217  00000+0  17381-3 0  9993", "line2": "2 65304  51.6314 195.1903 0003638 193.8265 166.2625 15.49237019   113"}}, "geometry": {"type": "Point", "coordinates": [156.2734335433863, -34.19502513259392]}}, {"type": "Feature", "properties": {"norad_id": 65586, "name": "PROGRESS-MS 32", "group": "stations", "lat": -34.195024706570585, "lon": 156.27343412822745, "alt_km": 423.8757055543165, "timestamp": "2025-12-03T08:58:44.795484+00:00", "meta": {"OBJECT_NAME": "PROGRESS-MS 32", "OBJECT_ID": "2025-204A", "EPOCH": "2025-12-02T02:12:50.598720", "MEAN_MOTION": 15.49237019, "ECCENTRICITY": 0.00036389, "INCLINATION": 51.6314, "RA_OF_ASC_NODE": 195.1903, "ARG_OF_PERICENTER": 193.8265, "MEAN_ANOMALY": 166.2625, "EPHEMERIS_TYPE": 0, "CLASSIFICATION_TYPE": "U", "NORAD_CAT_ID": 65586, "ELEMENT_SET_NO": 999, "REV_AT_EPOCH": 27, "BSTAR": 0.00017380747, "MEAN_MOTION_DOT": 9.217e-05, "MEAN_MOTION_DDOT": 0}, "tle": {"line1": "1 65586U 25204A   25336.09225230  .00009217  00000+0  17381-3 0  9996", "line2": "2 65586  51.6314 195.1903 0003638 193.8265 166.2625 15.49237019   272"}}, "geometry": {"type": "Point", "coordinates": [156.27343412822745, -34.195024706570585]}}, {"type": "Feature", "properties": {"norad_id": 65616, "name": "CYGNUS NG-23", "group": "stations", "lat": -34.195024067534554, "lon": 156.2734350054906, "alt_km": 423.87570555646835, "timestamp": "2025-12-03T08:58:44.795499+00:00", "meta": {"OBJECT_NAME": "CYGNUS NG-23", "OBJECT_ID": "2025-208A", "EPOCH": "2025-12-02T02:12:50.598720", "MEAN_MOTION": 15.49237019, "ECCENTRICITY": 0.00036389, "INCLINATION": 51.6314, "RA_OF_ASC_NODE": 195.1903, "ARG_OF_PERICENTER": 193.8265, "MEAN_ANOMALY": 166.2625, "EPHEMERIS_TYPE": 0, "CLASSIFICATION_TYPE": "U", "NORAD_CAT_ID": 65616, "ELEMENT_SET_NO": 999, "REV_AT_EPOCH": 22, "BSTAR": 0.00017380747, "MEAN_MOTION_DOT": 9.217e-05, "MEAN_MOTION_DDOT": 0}, "tle": {"line1": "1 65616U 25208A   25336.09225230  .00009217  00000+0  17381-3 0  9994", "line2": "2 65616  51.6314 195.1903 0003638 193.8265 166.2625 15.49237019   221"}}, "geometry": {"type": "Point", "coordinates": [156.2734350054906, -34.195024067534554]}}, {"type": "Feature", "properties": {"norad_id": 65729, "name": "DRAGONFLY", "group": "stations", "lat": -32.87136025280969, "lon": 152.78415970554065, "alt_km": 368.3632133729998, "timestamp": "2025-12-03T08:58:44.795509+00:00", "meta": {"OBJECT_NAME": "DRAGONFLY", "OBJECT_ID": "1998-067XH", "EPOCH": "2025-12-02T23:59:20.731200", "MEAN_MOTION": 15.68122428, "ECCENTRICITY": 0.0006566, "INCLINATION": 51.6251, "RA_OF_ASC_NODE": 185.4963, "ARG_OF_PERICENTER": 216.9941, "MEAN_ANOMALY": 143.0603, "EPHEMERIS_TYPE": 0, "CLASSIFICATION_TYPE": "U", "NORAD_CAT_ID": 65729, "ELEMENT_SET_NO": 999, "REV_AT_EPOCH": 1163, "BSTAR": 0.0013752, "MEAN_MOTION_DOT": 0.00158902, "MEAN_MOTION_DDOT": 0}, "tle": {"line1": "1 65729U 98067XH  25336.99954550  .00158902  00000+0  13752-2 0  9998", "line2": "2 65729  51.6251 185.4963 0006566 216.9941 143.0603 15.68122428 11639"}}, "geometry": {"type": "Point", "coordinates": [152.78415970554065, -32.87136025280969]}}, {"type": "Feature", "properties": {"norad_id": 65730, "name": "1998-067XJ", "group": "stations", "lat": -9.77310319894977, "lon": 169.5551500494732, "alt_km": 191.86051035074252, "timestamp": "2025-12-03T08:58:44.795520+00:00", "meta": {"OBJECT_NAME": "1998-067XJ", "OBJECT_ID": "1998-067XJ", "EPOCH": "2025-12-02T19:46:01.269120", "MEAN_MOTION": 16.23931094, "ECCENTRICITY": 0.0010115, "INCLINATION": 51.6061, "RA_OF_ASC_NODE": 180.4655, "ARG_OF_PERICENTER": 256.3912, "MEAN_ANOMALY": 103.5981, "EPHEMERIS_TYPE": 0, "CLASSIFICATION_TYPE": "U", "NORAD_CAT_ID": 65730, "ELEMENT_SET_NO": 999, "REV_AT_EPOCH": 1168, "BSTAR": 0.0022859, "MEAN_MOTION_DOT": 0.06330363, "MEAN_MOTION_DDOT": 1.1931e-05}, "tle": {"line1": "1 65730U 98067XJ  25336.82362580  .06330363  11931-4  22859-2 0  9995", "line2": "2 65730  51.6061 180.4655 0010115 256.3912 103.5981 16.23931094 11688"}}, "geometry": {"type": "Point", "coordinates": [169.5551500494732, -9.77310319894977]}}, {"type": "Feature", "properties": {"norad_id": 65731, "name": "1998-067XK", "group": "stations", "lat": 12.761435625299068, "lon": -5.67102298522715, "alt_km": 373.0196463772154, "timestamp": "2025-12-03T08:58:44.795530+00:00", "meta": {"OBJECT_NAME": "1998-067XK", "OBJECT_ID": "1998-067XK", "EPOCH": "2025-12-02T20:00:36.101088", "MEAN_MOTION": 15.63382318, "ECCENTRICITY": 0.0005863, "INCLINATION": 51.6285, "RA_OF_ASC_NODE": 187.4006, "ARG_OF_PERICENTER": 188.3266, "MEAN_ANOMALY": 171.7632, "EPHEMERIS_TYPE": 0, "CLASSIFICATION_TYPE": "U", "NORAD_CAT_ID": 65731, "ELEMENT_SET_NO": 999, "REV_AT_EPOCH": 1159, "BSTAR": 0.00098553, "MEAN_MOTION_DOT": 0.00093205, "MEAN_MOTION_DDOT": 0}, "tle": {"line1": "1 65731U 98067XK  25336.83375117  .00093205  00000+0  98553-3 0  9997", "line2": "2 65731  51.6285 187.4006 0005863 188.3266 171.7632 15.63382318 11596"}}, "geometry": {"type": "Point", "coordinates": [-5.67102298522715, 12.761435625299068]}}, {"type": "Feature", "properties": {"norad_id": 65732, "name": "RSP-03", "group": "stations", "lat": 36.83944126897349, "lon": -139.43797493312795, "alt_km": 369.95247100912, "timestamp": "2025-12-03T08:58:44.795540+00:00", "meta": {"OBJECT_NAME": "RSP-03", "OBJECT_ID": "1998-067XL", "EPOCH": "2025-12-02T23:34:31.952064", "MEAN_MOTION": 15.65632487, "ECCENTRICITY": 0.0006831, "INCLINATION": 51.6271, "RA_OF_ASC_NODE": 186.1351, "ARG_OF_PERICENTER": 192.2719, "MEAN_ANOMALY": 167.8111, "EPHEMERIS_TYPE": 0, "CLASSIFICATION_TYPE": "U", "NORAD_CAT_ID": 65732, "ELEMENT_SET_NO": 999, "REV_AT_EPOCH": 1163, "BSTAR": 0.0011971, "MEAN_MOTION_DOT": 0.00124452, "MEAN_MOTION_DDOT": 0}, "tle": {"line1": "1 65732U 98067XL  25336.98231426  .00124452  00000+0  11971-2 0  9995", "line2": "2 65732  51.6271 186.1351 0006831 192.2719 167.8111 15.65632487 11634"}}, "geometry": {"type": "Point", "coordinates": [-139.43797493312795, 36.83944126897349]}}, {"type": "Feature", "properties": {"norad_id": 65733, "name": "GHS-01", "group": "stations", "lat": 24.804883904542496, "lon": -18.287490796885862, "alt_km": 353.6271429619492, "timestamp": "2025-12-03T08:58:44.795550+00:00", "meta": {"OBJECT_NAME": "GHS-01", "OBJECT_ID": "1998-067XM", "EPOCH": "2025-12-02T20:07:58.918368", "MEAN_MOTION": 15.70056093, "ECCENTRICITY": 0.0006994, "INCLINATION": 51.628, "RA_OF_ASC_NODE": 185.9293, "ARG_OF_PERICENTER": 215.3541, "MEAN_ANOMALY": 144.6993, "EPHEMERIS_TYPE": 0, "CLASSIFICATION_TYPE": "U", "NORAD_CAT_ID": 65733, "ELEMENT_SET_NO": 999, "REV_AT_EPOCH": 1162, "BSTAR": 0.0014391, "MEAN_MOTION_DOT": 0.00180652, "MEAN_MOTION_DDOT": 0}, "tle": {"line1": "1 65733U 98067XM  25336.83887637  .00180652  00000+0  14391-2 0  9994", "line2": "2 65733  51.6280 185.9293 0006994 215.3541 144.6993 15.70056093 11626"}}, "geometry": {"type": "Point", "coordinates": [-18.287490796885862, 24.804883904542496]}}, {"type": "Feature", "properties": {"norad_id": 65941, "name": "YOTSUBA-KULOVER", "group": "stations", "lat": 39.3639089391284, "lon": -33.55035874120213, "alt_km": 387.60877605752466, "timestamp": "2025-12-03T08:58:44.795560+00:00", "meta": {"OBJECT_NAME": "YOTSUBA-KULOVER", "OBJECT_ID": "1998-067XN", "EPOCH": "2025-12-02T15:30:17.265024", "MEAN_MOTION": 15.57709356, "ECCENTRICITY": 0.00021398, "INCLINATION": 51.6284, "RA_OF_ASC_NODE": 190.644, "ARG_OF_PERICENTER": 164.2097, "MEAN_ANOMALY": 195.8962, "EPHEMERIS_TYPE": 0, "CLASSIFICATION_TYPE": "U", "NORAD_CAT_ID": 65941, "ELEMENT_SET_NO": 999, "REV_AT_EPOCH": 828, "BSTAR": 0.00091621888, "MEAN_MOTION_DOT": 0.00069349, "MEAN_MOTION_DDOT": 0}, "tle": {"line1": "1 65941U 98067XN  25336.64603316  .00069349  00000+0  91622-3 0  9996", "line2": "2 65941  51.6284 190.6440 0002139 164.2097 195.8962 15.57709356  8287"}}, "geometry": {"type": "Point", "coordinates": [-33.55035874120213, 39.3639089391284]}}]}